{
    "links": {
        "self": "http://www.neowsapp.com/rest/v1/neo/3825623?api_key=iIulBulltgU6a56xZRHN4H3l9WmuAYTsLGpBGhQ2"
    },
    "id": "3825623",
    "neo_reference_id": "3825623",
    "name": "(2018 NQ3)",
    "designation": "2018 NQ3",
    "nasa_jpl_url": "http://ssd.jpl.nasa.gov/sbdb.cgi?sstr=3825623",
    "absolute_magnitude_h": 26.0,
    "estimated_diameter": {
        "kilometers": {
            "estimated_diameter_min": 0.0167708462,
            "estimated_diameter_max": 0.0375007522
        },
        "meters": {
            "estimated_diameter_min": 16.7708462163,
            "estimated_diameter_max": 37.5007521798
        },
        "miles": {
            "estimated_diameter_min": 0.0104209175,
            "estimated_diameter_max": 0.0233018799
        },
        "feet": {
            "estimated_diameter_min": 55.0224631002,
            "estimated_diameter_max": 123.0339677816
        }
    },
    "is_potentially_hazardous_asteroid": false,
    "close_approach_data": [
        {
            "close_approach_date": "2018-07-10",
            "close_approach_date_full": "2018-Jul-10 19:07",
            "epoch_date_close_approach": 1531249620000,
            "relative_velocity": {
                "kilometers_per_second": "8.949359169",
                "kilometers_per_hour": "32217.693008574",
                "miles_per_hour": "20018.8215252442"
            },
            "miss_distance": {
                "astronomical": "0.0374938882",
                "lunar": "14.5851225098",
                "kilometers": "5609005.812738134",
                "miles": "3485274.5977048892"
            },
            "orbiting_body": "Earth"
        }
    ],
    "orbital_data": {
        "orbit_id": "1",
        "orbit_determination_date": "2018-07-14 07:42:59",
        "first_observation_date": "2018-07-11",
        "last_observation_date": "2018-07-14",
        "data_arc_in_days": 3,
        "observations_used": 8,
        "orbit_uncertainty": "8",
        "minimum_orbit_intersection": ".0373176",
        "jupiter_tisserand_invariant": "3.501",
        "epoch_osculation": "2458311.5",
        "eccentricity": ".5106731988441235",
        "semi_major_axis": "2.153876127708454",
        "inclination": "11.18656176214552",
        "ascending_node_longitude": "108.8340274961349",
        "orbital_period": "1154.594571075652",
        "perihelion_distance": "1.053949315657584",
        "perihelion_argument": "180.2924805257705",
        "aphelion_distance": "3.253802939759325",
        "perihelion_time": "2458310.952016090593",
        "mean_anomaly": ".1708601550089864",
        "mean_motion": ".3117977591602689",
        "equinox": "J2000",
        "orbit_class": {
            "orbit_class_type": "AMO",
            "orbit_class_description": "Near-Earth asteroid orbits similar to that of 1221 Amor",
            "orbit_class_range": "1.017 AU < q (perihelion) < 1.3 AU"
        }
    },
    "is_sentry_object": false
}